[{"OBJECT_NAME":"YAOGAN-36 02A","OBJECT_ID":"2022-133A","EPOCH":"2026-03-10T00:04:36.049728","MEAN_MOTION":15.23118612,"ECCENTRICITY":0.00301484,"INCLINATION":35.0077,"RA_OF_ASC_NODE":23.5078,"ARG_OF_PERICENTER":29.898,"MEAN_ANOMALY":330.345,"EPHEMERIS_TYPE":0,"CLASSIFICATION_TYPE":"U","NORAD_CAT_ID":54042,"ELEMENT_SET_NO":999,"REV_AT_EPOCH":18962,"BSTAR":0.00070143583,"MEAN_MOTION_DOT":0.00017174,"MEAN_MOTION_DDOT":0},{"OBJECT_NAME":"STARLINK-36517","OBJECT_ID":"2026-008K","EPOCH":"2026-03-09T10:56:23.735328","MEAN_MOTION":15.27599223,"ECCENTRICITY":0.0002153,"INCLINATION":42.9956,"RA_OF_ASC_NODE":206.7869,"ARG_OF_PERICENTER":179.317,"MEAN_ANOMALY":180.7685,"EPHEMERIS_TYPE":0,"CLASSIFICATION_TYPE":"U","NORAD_CAT_ID":67454,"ELEMENT_SET_NO":999,"REV_AT_EPOCH":953,"BSTAR":0.00089482044,"MEAN_MOTION_DOT":0.00024458,"MEAN_MOTION_DDOT":0}]
